{
    "links": {
        "self": "http://www.neowsapp.com/rest/v1/neo/3797473?api_key=iIulBulltgU6a56xZRHN4H3l9WmuAYTsLGpBGhQ2"
    },
    "id": "3797473",
    "neo_reference_id": "3797473",
    "name": "(2018 AH3)",
    "designation": "2018 AH3",
    "nasa_jpl_url": "http://ssd.jpl.nasa.gov/sbdb.cgi?sstr=3797473",
    "absolute_magnitude_h": 24.6,
    "estimated_diameter": {
        "kilometers": {
            "estimated_diameter_min": 0.0319561887,
            "estimated_diameter_max": 0.0714562102
        },
        "meters": {
            "estimated_diameter_min": 31.9561886721,
            "estimated_diameter_max": 71.4562101727
        },
        "miles": {
            "estimated_diameter_min": 0.0198566489,
            "estimated_diameter_max": 0.0444008168
        },
        "feet": {
            "estimated_diameter_min": 104.8431420431,
            "estimated_diameter_max": 234.436392583
        }
    },
    "is_potentially_hazardous_asteroid": false,
    "close_approach_data": [
        {
            "close_approach_date": "2017-12-17",
            "close_approach_date_full": "2017-Dec-17 11:19",
            "epoch_date_close_approach": 1513509540000,
            "relative_velocity": {
                "kilometers_per_second": "9.4999937683",
                "kilometers_per_hour": "34199.9775660044",
                "miles_per_hour": "21250.5360603876"
            },
            "miss_distance": {
                "astronomical": "0.0593447063",
                "lunar": "23.0850907507",
                "kilometers": "8877841.658255581",
                "miles": "5516435.0059497778"
            },
            "orbiting_body": "Earth"
        }
    ],
    "orbital_data": {
        "orbit_id": "3",
        "orbit_determination_date": "2019-07-17 06:12:39",
        "first_observation_date": "2018-01-08",
        "last_observation_date": "2018-01-15",
        "data_arc_in_days": 7,
        "observations_used": 31,
        "orbit_uncertainty": "9",
        "minimum_orbit_intersection": ".0295516",
        "jupiter_tisserand_invariant": "3.005",
        "epoch_osculation": "2458131.5",
        "eccentricity": ".6386952815093404",
        "semi_major_axis": "2.76232245931113",
        "inclination": "1.587171272651787",
        "ascending_node_longitude": "334.0289014693705",
        "orbital_period": "1676.91090369443",
        "perihelion_distance": ".9980401385418344",
        "perihelion_argument": "88.93311501734344",
        "aphelion_distance": "4.526604780080426",
        "perihelion_time": "2458088.556241145458",
        "mean_anomaly": "9.219185797871242",
        "mean_motion": ".214680457504855",
        "equinox": "J2000",
        "orbit_class": {
            "orbit_class_type": "APO",
            "orbit_class_description": "Near-Earth asteroid orbits which cross the Earth’s orbit similar to that of 1862 Apollo",
            "orbit_class_range": "a (semi-major axis) > 1.0 AU; q (perihelion) < 1.017 AU"
        }
    },
    "is_sentry_object": false
}